{
  "type": "FeatureCollection",
  "features": [
    {
      "type": "Feature",
      "properties": {
        "norad_id": 55973,
        "name": "TIANMU-1 03",
        "group": "weather",
        "lat": 11.261372547971057,
        "lon": 140.5633510969374,
        "alt_km": 444.7216846691854,
        "timestamp": "2025-12-05T14:45:14.957843+00:00",
        "meta_object_name": "TIANMU-1 03",
        "meta_object_id": "2023-039A",
        "meta_epoch": "2025-12-04T16:52:51.842784",
        "meta_mean_motion": 15.40568525,
        "meta_eccentricity": 0.0004541,
        "meta_inclination": 97.5103,
        "meta_ra_of_asc_node": 141.1326,
        "meta_arg_of_pericenter": 84.218,
        "meta_mean_anomaly": 275.9583,
        "meta_ephemeris_type": 0,
        "meta_classification_type": "U",
        "meta_norad_cat_id": 55973,
        "meta_element_set_no": 999,
        "meta_rev_at_epoch": 15082,
        "meta_bstar": 0.00068481,
        "meta_mean_motion_dot": 0.00027826,
        "meta_mean_motion_ddot": 0,
        "tle_line1": "1 55973U 23039A   25338.70337781  .00027826  00000+0  68481-3 0  9997",
        "tle_line2": "2 55973  97.5103 141.1326 0004541  84.2180 275.9583 15.40568525150827"
      },
      "geometry": {
        "type": "Point",
        "coordinates": [
          140.5633510969374,
          11.261372547971057
        ]
      }
    },
    {
      "type": "Feature",
      "properties": {
        "norad_id": 55974,
        "name": "TIANMU-1 04",
        "group": "weather",
        "lat": 62.02554353655395,
        "lon": -24.368488802160254,
        "alt_km": 434.5509146116665,
        "timestamp": "2025-12-05T14:45:14.957855+00:00",
        "meta_object_name": "TIANMU-1 04",
        "meta_object_id": "2023-039B",
        "meta_epoch": "2025-12-04T17:59:16.766304",
        "meta_mean_motion": 15.4090154,
        "meta_eccentricity": 0.0005228,
        "meta_inclination": 97.5035,
        "meta_ra_of_asc_node": 140.3744,
        "meta_arg_of_pericenter": 80.3624,
        "meta_mean_anomaly": 279.8213,
        "meta_ephemeris_type": 0,
        "meta_classification_type": "U",
        "meta_norad_cat_id": 55974,
        "meta_element_set_no": 999,
        "meta_rev_at_epoch": 15083,
        "meta_bstar": 0.00069338,
        "meta_mean_motion_dot": 0.00028492,
        "meta_mean_motion_ddot": 0,
        "tle_line1": "1 55974U 23039B   25338.74949961  .00028492  00000+0  69338-3 0  9993",
        "tle_line2": "2 55974  97.5035 140.3744 0005228  80.3624 279.8213 15.40901540150832"
      },
      "geometry": {
        "type": "Point",
        "coordinates": [
          -24.368488802160254,
          62.02554353655395
        ]
      }
    },
    {
      "type": "Feature",
      "properties": {
        "norad_id": 55975,
        "name": "TIANMU-1 05",
        "group": "weather",
        "lat": 21.18620713773923,
        "lon": -35.315016685616875,
        "alt_km": 442.9330085668262,
        "timestamp": "2025-12-05T14:45:14.957866+00:00",
        "meta_object_name": "TIANMU-1 05",
        "meta_object_id": "2023-039C",
        "meta_epoch": "2025-12-04T17:48:11.113056",
        "meta_mean_motion": 15.40528463,
        "meta_eccentricity": 0.0004322,
        "meta_inclination": 97.5082,
        "meta_ra_of_asc_node": 140.8584,
        "meta_arg_of_pericenter": 101.2568,
        "meta_mean_anomaly": 258.9163,
        "meta_ephemeris_type": 0,
        "meta_classification_type": "U",
        "meta_norad_cat_id": 55975,
        "meta_element_set_no": 999,
        "meta_rev_at_epoch": 15081,
        "meta_bstar": 0.00069501,
        "meta_mean_motion_dot": 0.00028205,
        "meta_mean_motion_ddot": 0,
        "tle_line1": "1 55975U 23039C   25338.74179529  .00028205  00000+0  69501-3 0  9993",
        "tle_line2": "2 55975  97.5082 140.8584 0004322 101.2568 258.9163 15.40528463150815"
      },
      "geometry": {
        "type": "Point",
        "coordinates": [
          -35.315016685616875,
          21.18620713773923
        ]
      }
    },
    {
      "type": "Feature",
      "properties": {
        "norad_id": 55976,
        "name": "TIANMU-1 06",
        "group": "weather",
        "lat": 74.52220135976938,
        "lon": -9.337642684263592,
        "alt_km": 432.9042416140028,
        "timestamp": "2025-12-05T14:45:14.957876+00:00",
        "meta_object_name": "TIANMU-1 06",
        "meta_object_id": "2023-039D",
        "meta_epoch": "2025-12-04T18:02:48.111072",
        "meta_mean_motion": 15.40954476,
        "meta_eccentricity": 0.0004688,
        "meta_inclination": 97.5092,
        "meta_ra_of_asc_node": 141.3274,
        "meta_arg_of_pericenter": 96.6895,
        "meta_mean_anomaly": 263.4884,
        "meta_ephemeris_type": 0,
        "meta_classification_type": "U",
        "meta_norad_cat_id": 55976,
        "meta_element_set_no": 999,
        "meta_rev_at_epoch": 15083,
        "meta_bstar": 0.0006912,
        "meta_mean_motion_dot": 0.0002845,
        "meta_mean_motion_ddot": 0,
        "tle_line1": "1 55976U 23039D   25338.75194573  .00028450  00000+0  69120-3 0  9990",
        "tle_line2": "2 55976  97.5092 141.3274 0004688  96.6895 263.4884 15.40954476150834"
      },
      "geometry": {
        "type": "Point",
        "coordinates": [
          -9.337642684263592,
          74.52220135976938
        ]
      }
    },
    {
      "type": "Feature",
      "properties": {
        "norad_id": 56232,
        "name": "FENGYUN 3G",
        "group": "weather",
        "lat": 4.260837485040761,
        "lon": 80.61626153293267,
        "alt_km": 404.81679921439263,
        "timestamp": "2025-12-05T14:45:14.957886+00:00",
        "meta_object_name": "FENGYUN 3G",
        "meta_object_id": "2023-055A",
        "meta_epoch": "2025-12-04T17:55:56.865216",
        "meta_mean_motion": 15.52928854,
        "meta_eccentricity": 0.0009178,
        "meta_inclination": 49.995,
        "meta_ra_of_asc_node": 268.6785,
        "meta_arg_of_pericenter": 110.0756,
        "meta_mean_anomaly": 250.12,
        "meta_ephemeris_type": 0,
        "meta_classification_type": "U",
        "meta_norad_cat_id": 56232,
        "meta_element_set_no": 999,
        "meta_rev_at_epoch": 14978,
        "meta_bstar": 0.00089698,
        "meta_mean_motion_dot": 0.00056956,
        "meta_mean_motion_ddot": 0,
        "tle_line1": "1 56232U 23055A   25338.74718594  .00056956  00000+0  89698-3 0  9992",
        "tle_line2": "2 56232  49.9950 268.6785 0009178 110.0756 250.1200 15.52928854149781"
      },
      "geometry": {
        "type": "Point",
        "coordinates": [
          80.61626153293267,
          4.260837485040761
        ]
      }
    },
    {
      "type": "Feature",
      "properties": {
        "norad_id": 57166,
        "name": "METEOR-M2 3",
        "group": "weather",
        "lat": 75.35345816278745,
        "lon": -111.15071682823155,
        "alt_km": 803.7340579259435,
        "timestamp": "2025-12-05T14:45:14.957897+00:00",
        "meta_object_name": "METEOR-M2 3",
        "meta_object_id": "2023-091A",
        "meta_epoch": "2025-12-04T18:02:31.695936",
        "meta_mean_motion": 14.24024611,
        "meta_eccentricity": 0.000434,
        "meta_inclination": 98.639,
        "meta_ra_of_asc_node": 32.4303,
        "meta_arg_of_pericenter": 30.3381,
        "meta_mean_anomaly": 329.8049,
        "meta_ephemeris_type": 0,
        "meta_classification_type": "U",
        "meta_norad_cat_id": 57166,
        "meta_element_set_no": 999,
        "meta_rev_at_epoch": 12684,
        "meta_bstar": 4.9883e-05,
        "meta_mean_motion_dot": 7.1e-07,
        "meta_mean_motion_ddot": 0,
        "tle_line1": "1 57166U 23091A   25338.75175574  .00000071  00000+0  49883-4 0  9995",
        "tle_line2": "2 57166  98.6390  32.4303 0004340  30.3381 329.8049 14.24024611126847"
      },
      "geometry": {
        "type": "Point",
        "coordinates": [
          -111.15071682823155,
          75.35345816278745
        ]
      }
    },
    {
      "type": "Feature",
      "properties": {
        "norad_id": 57399,
        "name": "TIANMU-1 07",
        "group": "weather",
        "lat": 32.88159491618085,
        "lon": -145.63074598579448,
        "alt_km": 477.5381788198101,
        "timestamp": "2025-12-05T14:45:14.957909+00:00",
        "meta_object_name": "TIANMU-1 07",
        "meta_object_id": "2023-101A",
        "meta_epoch": "2025-12-04T17:40:52.877568",
        "meta_mean_motion": 15.27895353,
        "meta_eccentricity": 0.0005633,
        "meta_inclination": 97.289,
        "meta_ra_of_asc_node": 28.7641,
        "meta_arg_of_pericenter": 101.7091,
        "meta_mean_anomaly": 258.4781,
        "meta_ephemeris_type": 0,
        "meta_classification_type": "U",
        "meta_norad_cat_id": 57399,
        "meta_element_set_no": 999,
        "meta_rev_at_epoch": 13193,
        "meta_bstar": 0.00057651,
        "meta_mean_motion_dot": 0.00015649,
        "meta_mean_motion_ddot": 0,
        "tle_line1": "1 57399U 23101A   25338.73672312  .00015649  00000+0  57651-3 0  9993",
        "tle_line2": "2 57399  97.2890  28.7641 0005633 101.7091 258.4781 15.27895353131934"
      },
      "geometry": {
        "type": "Point",
        "coordinates": [
          -145.63074598579448,
          32.88159491618085
        ]
      }
    }
  ]
}